[{"OBJECT_NAME":"IRIS","OBJECT_ID":"2013-033A","EPOCH":"2026-03-09T13:26:21.239520","MEAN_MOTION":14.85645982,"ECCENTRICITY":0.00232612,"INCLINATION":97.9395,"RA_OF_ASC_NODE":268.1167,"ARG_OF_PERICENTER":285.8728,"MEAN_ANOMALY":73.9923,"EPHEMERIS_TYPE":0,"CLASSIFICATION_TYPE":"U","NORAD_CAT_ID":39197,"ELEMENT_SET_NO":999,"REV_AT_EPOCH":68558,"BSTAR":0.00024024039,"MEAN_MOTION_DOT":2.035e-5,"MEAN_MOTION_DDOT":0},{"OBJECT_NAME":"SL-14 R\/B","OBJECT_ID":"1982-092B","EPOCH":"2026-03-09T17:18:39.150144","MEAN_MOTION":14.86666366,"ECCENTRICITY":0.00190036,"INCLINATION":82.5695,"RA_OF_ASC_NODE":141.37,"ARG_OF_PERICENTER":303.44,"MEAN_ANOMALY":173.5585,"EPHEMERIS_TYPE":0,"CLASSIFICATION_TYPE":"U","NORAD_CAT_ID":13553,"ELEMENT_SET_NO":999,"REV_AT_EPOCH":32893,"BSTAR":6.0425664e-5,"MEAN_MOTION_DOT":5.62e-6,"MEAN_MOTION_DDOT":0}]
